[{"OBJECT_NAME":"HULIANWANG DIGUI-101","OBJECT_ID":"2025-258F","EPOCH":"2026-03-09T21:38:49.258464","MEAN_MOTION":13.29333131,"ECCENTRICITY":4.229e-5,"INCLINATION":49.9998,"RA_OF_ASC_NODE":291.751,"ARG_OF_PERICENTER":101.7785,"MEAN_ANOMALY":258.3135,"EPHEMERIS_TYPE":0,"CLASSIFICATION_TYPE":"U","NORAD_CAT_ID":66417,"ELEMENT_SET_NO":999,"REV_AT_EPOCH":1653,"BSTAR":0.00013234226,"MEAN_MOTION_DOT":-6.3e-7,"MEAN_MOTION_DDOT":0},{"OBJECT_NAME":"PEGASUS DEB","OBJECT_ID":"1994-029AFG","EPOCH":"2026-03-08T04:30:15.278976","MEAN_MOTION":13.94053374,"ECCENTRICITY":0.04343673,"INCLINATION":82.2874,"RA_OF_ASC_NODE":237.0889,"ARG_OF_PERICENTER":97.0097,"MEAN_ANOMALY":268.0663,"EPHEMERIS_TYPE":0,"CLASSIFICATION_TYPE":"U","NORAD_CAT_ID":39321,"ELEMENT_SET_NO":999,"REV_AT_EPOCH":64017,"BSTAR":0.00075688702,"MEAN_MOTION_DOT":2.229e-5,"MEAN_MOTION_DDOT":0}]
